NORAD_CAT_ID,OBJECT_NAME,OBJECT_TYPE,EPOCH,MEAN_MOTION,ECCENTRICITY,INCLINATION,RA_OF_ASC_NODE,ARG_OF_PERICENTER,MEAN_ANOMALY,BSTAR,MEAN_MOTION_DOT,MEAN_MOTION_DDOT,TLE_LINE0,TLE_LINE1,TLE_LINE2,SEMIMAJOR_AXIS,PERIOD,APOGEE,PERIGEE,DECAYED
52288.0,STARLINK-3776,PAYLOAD,2024-05-24 10:40:42,15.08842121,0.0001516,53.2165,156.1394,102.514,257.6021,8.803e-05,1.113e-05,0.0,0 STARLINK-3776,1 52288U 22041AD  24145.44493920  .00001113  00000-0  88030-4 0  9994,2 52288  53.2165 156.1394 0001516 102.5140 257.6021 15.08842121115736,6917.874,95.437,540.788,538.69,0.0
52288.0,STARLINK-3776,PAYLOAD,2024-05-25 05:45:20,15.08838818,0.0001498,53.2165,152.5701,101.9404,258.1756,5.5349e-05,5.93e-06,0.0,0 STARLINK-3776,1 52288U 22041AD  24146.23982145  .00000593  00000-0  55349-4 0  9992,2 52288  53.2165 152.5701 0001498 101.9404 258.1756 15.08838818117071,6917.884,95.438,540.785,538.713,0.0
52288.0,STARLINK-3776,PAYLOAD,2024-05-25 10:31:30,15.08839312,0.0001408,53.216,151.6796,90.2987,269.8166,4.8971e-05,4.92e-06,0.0,0 STARLINK-3776,1 52288U 22041AD  24146.43854178  .00000492  00000-0  48971-4 0  9999,2 52288  53.2160 151.6796 0001408  90.2987 269.8166 15.08839312115888,6917.882,95.438,540.722,538.773,0.0
52288.0,STARLINK-3776,PAYLOAD,2024-05-26 05:36:07,15.08842173,0.0001388,53.2164,148.1119,104.6557,255.4589,4.4238e-05,4.16e-06,0.0,0 STARLINK-3776,1 52288U 22041AD  24147.23342001  .00000416  00000-0  44238-4 0  9993,2 52288  53.2164 148.1119 0001388 104.6557 255.4589 15.08842173116006,6917.874,95.437,540.699,538.779,0.0
52288.0,STARLINK-3776,PAYLOAD,2024-05-26 16:43:49,15.08834513,0.0001748,53.2171,146.04,124.2338,235.882,2.9974e-05,1.89e-06,0.0,0 STARLINK-3776,1 52288U 22041AD  24147.69710647  .00000189  00000-0  29974-4 0  9995,2 52288  53.2171 146.0400 0001748 124.2338 235.8820 15.08834513117290,6917.897,95.438,540.971,538.553,0.0
52288.0,STARLINK-3776,PAYLOAD,2024-05-27 08:37:41,15.08838598,0.000119,53.2167,143.0566,88.8223,271.2906,0.00013654,1.886e-05,0.0,0 STARLINK-3776,1 52288U 22041AD  24148.35950293  .00001886  00000-0  13654-3 0  9994,2 52288  53.2167 143.0566 0001190  88.8223 271.2906 15.08838598116176,6917.885,95.438,540.573,538.926,0.0
52288.0,STARLINK-3776,PAYLOAD,2024-05-28 05:17:42,15.08838825,0.0001346,53.2158,139.1899,82.1861,277.9284,5.8908e-05,6.5e-06,0.0,0 STARLINK-3776,1 52288U 22041AD  24149.22062679  .00000650  00000-0  58908-4 0  9993,2 52288  53.2158 139.1899 0001346  82.1861 277.9284 15.08838825117524,6917.884,95.438,540.68,538.818,0.0
52288.0,STARLINK-3776,PAYLOAD,2024-05-28 08:28:28,15.08840608,0.0001374,53.216,138.5928,82.4195,277.6953,6.9265e-05,8.15e-06,0.0,0 STARLINK-3776,1 52288U 22041AD  24149.35310521  .00000815  00000-0  69265-4 0  9990,2 52288  53.2160 138.5928 0001374  82.4195 277.6953 15.08840608116326,6917.879,95.438,540.694,538.793,0.0
52288.0,STARLINK-3776,PAYLOAD,2024-05-29 08:19:15,15.08837892,0.0001434,53.2166,134.1324,83.2428,276.8727,9.5021e-05,1.225e-05,0.0,0 STARLINK-3776,1 52288U 22041AD  24150.34670801  .00001225  00000-0  95021-4 0  9996,2 52288  53.2166 134.1324 0001434  83.2428 276.8727 15.08837892117691,6917.887,95.438,540.744,538.76,0.0
52288.0,STARLINK-3776,PAYLOAD,2024-05-30 04:59:15,15.08848373,0.0001393,53.2165,130.2677,89.6456,270.4695,9.9083e-05,1.29e-05,0.0,0 STARLINK-3776,1 52288U 22041AD  24151.20782081  .00001290  00000-0  99083-4 0  9990,2 52288  53.2165 130.2677 0001393  89.6456 270.4695 15.08848373117828,6917.855,95.437,540.683,538.756,0.0
52288.0,STARLINK-3776,PAYLOAD,2024-05-30 08:10:01,15.08849864,0.0001417,53.2166,129.672,87.954,272.1614,0.00011053,1.472e-05,0.0,0 STARLINK-3776,1 52288U 22041AD  24151.34029904  .00001472  00000-0  11053-3 0  9995,2 52288  53.2166 129.6720 0001417  87.9540 272.1614 15.08849864116625,6917.85,95.437,540.695,538.735,0.0
52288.0,STARLINK-3776,PAYLOAD,2024-05-31 04:50:02,15.08843439,0.00015,53.2172,125.8043,82.7032,277.413,5.4709e-05,5.83e-06,0.0,0 STARLINK-3776,1 52288U 22041AD  24152.20142348  .00000583  00000-0  54709-4 0  9997,2 52288  53.2172 125.8043 0001500  82.7032 277.4130 15.08843439117972,6917.87,95.437,540.773,538.697,0.0
52288.0,STARLINK-3776,PAYLOAD,2024-06-01 04:40:49,15.08843836,0.0001455,53.217,121.3479,94.6739,265.442,-2.7608e-06,-3.32e-06,0.0,0 STARLINK-3776,1 52288U 22041AD  24153.19502226 -.00000332  00000-0 -27608-5 0  9994,2 52288  53.2170 121.3479 0001455  94.6739 265.4420 15.08843836116901,6917.869,95.437,540.74,538.727,0.0
52288.0,STARLINK-3776,PAYLOAD,2024-06-02 04:31:37,15.08832339,0.0001349,53.217,116.8891,95.3749,264.7397,2.8214e-08,-2.87e-06,0.0,0 STARLINK-3776,1 52288U 22041AD  24154.18863191 -.00000287  00000-0  28214-7 0  9999,2 52288  53.2170 116.8891 0001349  95.3749 264.7397 15.08832339118272,6917.904,95.438,540.702,538.836,0.0
52288.0,STARLINK-3776,PAYLOAD,2024-06-02 14:03:56,15.0883407,0.0001358,53.2173,115.1058,94.8315,265.2832,-2.8799e-05,-7.46e-06,0.0,0 STARLINK-3776,1 52288U 22041AD  24154.58607372 -.00000746  00000-0 -28799-4 0  9996,2 52288  53.2173 115.1058 0001358  94.8315 265.2832 15.08834070117111,6917.899,95.438,540.703,538.824,0.0
52288.0,STARLINK-3776,PAYLOAD,2024-06-02 22:00:52,15.08835397,0.0001264,53.2166,113.6182,94.78,265.3337,3.7713e-05,3.12e-06,0.0,0 STARLINK-3776,1 52288U 22041AD  24154.91727203  .00000312  00000-0  37713-4 0  9992,2 52288  53.2166 113.6182 0001264  94.7800 265.3337 15.08835397117167,6917.894,95.438,540.634,538.885,0.0
52288.0,STARLINK-3776,PAYLOAD,2024-06-03 04:22:24,15.0883976,0.0001296,53.217,112.4292,95.5933,264.5207,7.4184e-05,8.93e-06,0.0,0 STARLINK-3776,1 52288U 22041AD  24155.18222938  .00000893  00000-0  74184-4 0  9994,2 52288  53.2170 112.4292 0001296  95.5933 264.5207 15.08839760118427,6917.881,95.438,540.643,538.85,0.0
52288.0,STARLINK-3776,PAYLOAD,2024-06-03 05:57:47,15.08841312,0.0001287,53.2172,112.1315,98.3152,261.7986,6.0062e-05,6.68e-06,0.0,0 STARLINK-3776,1 52288U 22041AD  24155.24846903  .00000668  00000-0  60062-4 0  9995,2 52288  53.2172 112.1315 0001287  98.3152 261.7986 15.08841312117211,6917.876,95.437,540.632,538.851,0.0
52288.0,STARLINK-3776,PAYLOAD,2024-06-04 05:48:34,15.08848628,0.0001239,53.2174,107.673,92.2188,267.8946,0.00021454,3.129e-05,0.0,0 STARLINK-3776,1 52288U 22041AD  24156.24206307  .00003129  00000-0  21454-3 0  9990,2 52288  53.2174 107.6730 0001239  92.2188 267.8946 15.08848628118583,6917.854,95.437,540.576,538.862,0.0
52288.0,STARLINK-3776,PAYLOAD,2024-06-05 04:03:58,15.08843573,0.0001204,53.2168,103.5092,84.5329,275.58,5.4818e-05,5.85e-06,0.0,0 STARLINK-3776,1 52288U 22041AD  24157.16943039  .00000585  00000-0  54818-4 0  9996,2 52288  53.2168 103.5092 0001204  84.5329 275.5800 15.08843573118720,6917.869,95.437,540.567,538.902,0.0
52288.0,STARLINK-3776,PAYLOAD,2024-06-05 13:36:17,15.08838318,0.0001089,53.2163,101.7228,87.4662,272.6454,2.8453e-05,1.65e-06,0.0,0 STARLINK-3776,1 52288U 22041AD  24157.56687393  .00000165  00000-0  28453-4 0  9998,2 52288  53.2163 101.7228 0001089  87.4662 272.6454 15.08838318117564,6917.886,95.438,540.504,538.997,0.0
52288.0,STARLINK-3776,PAYLOAD,2024-06-06 03:54:45,15.08847681,0.0001211,53.2177,99.0447,97.0851,263.0278,-4.4263e-05,-9.92e-06,0.0,0 STARLINK-3776,1 52288U 22041AD  24158.16302978 -.00000992  00000-0 -44263-4 0  9995,2 52288  53.2177  99.0447 0001211  97.0851 263.0278 15.08847681118871,6917.857,95.437,540.56,538.884,0.0
52288.0,STARLINK-3776,PAYLOAD,2024-06-06 13:27:04,15.08847168,0.0001216,53.2177,97.2619,94.6293,265.4838,-3.9188e-05,-9.12e-06,0.0,0 STARLINK-3776,1 52288U 22041AD  24158.56046902 -.00000912  00000-0 -39188-4 0  9993,2 52288  53.2177  97.2619 0001216  94.6293 265.4838 15.08847168117710,6917.858,95.437,540.565,538.882,0.0
52288.0,STARLINK-3776,PAYLOAD,2024-06-07 13:17:52,15.08838134,0.0001207,53.2174,92.8011,86.1957,273.9173,-4.4087e-06,-3.58e-06,0.0,0 STARLINK-3776,1 52288U 22041AD  24159.55407603 -.00000358  00000-0 -44087-5 0  9991,2 52288  53.2174  92.8011 0001207  86.1957 273.9173 15.08838134119088,6917.886,95.438,540.586,538.916,0.0
52288.0,STARLINK-3776,PAYLOAD,2024-06-07 22:50:11,15.0883394,0.0001172,53.218,91.0166,91.6858,268.4268,5.7546e-05,6.28e-06,0.0,0 STARLINK-3776,1 52288U 22041AD  24159.95151858  .00000628  00000-0  57546-4 0  9994,2 52288  53.2180  91.0166 0001172  91.6858 268.4268 15.08833940117924,6917.899,95.438,540.575,538.953,0.0
52288.0,STARLINK-3776,PAYLOAD,2024-06-08 02:00:57,15.08839894,0.0001354,53.2176,90.421,93.9433,266.1714,0.00010558,1.393e-05,0.0,0 STARLINK-3776,1 52288U 22041AD  24160.08399400  .00001393  00000-0  10558-3 0  9998,2 52288  53.2176  90.4210 0001354  93.9433 266.1714 15.08839894117945,6917.881,95.438,540.682,538.809,0.0
52288.0,STARLINK-3776,PAYLOAD,2024-06-08 19:30:12,15.08836934,0.0001693,53.218,87.1493,96.7693,263.3492,1.6899e-05,-1.9e-07,0.0,0 STARLINK-3776,1 52288U 22041AD  24160.81264017 -.00000019  00000-0  16899-4 0  9994,2 52288  53.2180  87.1493 0001693  96.7693 263.3492 15.08836934119273,6917.89,95.438,540.926,538.584,0.0
52288.0,STARLINK-3776,PAYLOAD,2024-06-08 22:40:57,15.08836256,4.59e-05,53.2164,86.5548,102.6777,257.4266,3.8763e-05,3.29e-06,0.0,0 STARLINK-3776,1 52288U 22041AD  24160.94511563  .00000329  00000-0  38763-4 0  9996,2 52288  53.2164  86.5548 0000459 102.6777 257.4266 15.08836256118075,6917.892,95.438,540.074,539.439,0.0
52288.0,STARLINK-3776,PAYLOAD,2024-06-09 01:51:44,15.08840582,0.0001231,53.2171,85.9607,96.1929,263.9204,4.7155e-05,4.63e-06,0.0,0 STARLINK-3776,1 52288U 22041AD  24161.07759585  .00000463  00000-0  47155-4 0  9993,2 52288  53.2171  85.9607 0001231  96.1929 263.9204 15.08840582118090,6917.879,95.438,540.595,538.892,0.0
52288.0,STARLINK-3776,PAYLOAD,2024-06-09 22:31:45,15.08834283,0.0001442,53.2176,82.0971,96.8081,263.3075,1.6011e-05,-3.3e-07,0.0,0 STARLINK-3776,1 52288U 22041AD  24161.93872483 -.00000033  00000-0  16011-4 0  9992,2 52288  53.2176  82.0971 0001442  96.8081 263.3075 15.08834283118223,6917.898,95.438,540.76,538.765,0.0
